[{"OBJECT_NAME":"SL-8 R/B","OBJECT_ID":"1991-006B","EPOCH":"2026-04-10T10:17:47.307264","MEAN_MOTION":13.77500097,"ECCENTRICITY":0.0021176,"INCLINATION":82.9423,"RA_OF_ASC_NODE":146.446,"ARG_OF_PERICENTER":308.5305,"MEAN_ANOMALY":62.5565,"EPHEMERIS_TYPE":0,"CLASSIFICATION_TYPE":"U","NORAD_CAT_ID":21088,"ELEMENT_SET_NO":999,"REV_AT_EPOCH":76844,"BSTAR":9.9459e-5,"MEAN_MOTION_DOT":1.14e-6,"MEAN_MOTION_DDOT":0},{"OBJECT_NAME":"OKEAN-3","OBJECT_ID":"1991-039A","EPOCH":"2026-04-10T12:40:46.318368","MEAN_MOTION":15.05002946,"ECCENTRICITY":0.0013478,"INCLINATION":82.5157,"RA_OF_ASC_NODE":305.989,"ARG_OF_PERICENTER":218.2611,"MEAN_ANOMALY":141.766,"EPHEMERIS_TYPE":0,"CLASSIFICATION_TYPE":"U","NORAD_CAT_ID":21397,"ELEMENT_SET_NO":999,"REV_AT_EPOCH":86982,"BSTAR":0.00015361,"MEAN_MOTION_DOT":2.211e-5,"MEAN_MOTION_DDOT":0},{"OBJECT_NAME":"COSMOS 2151","OBJECT_ID":"1991-042A","EPOCH":"2026-04-10T11:59:17.556000","MEAN_MOTION":15.00255643,"ECCENTRICITY":0.0011172,"INCLINATION":82.4966,"RA_OF_ASC_NODE":52.984,"ARG_OF_PERICENTER":318.7656,"MEAN_ANOMALY":41.2723,"EPHEMERIS_TYPE":0,"CLASSIFICATION_TYPE":"U","NORAD_CAT_ID":21422,"ELEMENT_SET_NO":999,"REV_AT_EPOCH":86796,"BSTAR":0.00015235,"MEAN_MOTION_DOT":1.935e-5,"MEAN_MOTION_DDOT":0},{"OBJECT_NAME":"SL-14 R/B","OBJECT_ID":"1991-042B","EPOCH":"2026-04-10T11:52:08.356224","MEAN_MOTION":14.81863198,"ECCENTRICITY":0.0018177,"INCLINATION":82.496,"RA_OF_ASC_NODE":190.3672,"ARG_OF_PERICENTER":133.4144,"MEAN_ANOMALY":226.8587,"EPHEMERIS_TYPE":0,"CLASSIFICATION_TYPE":"U","NORAD_CAT_ID":21423,"ELEMENT_SET_NO":999,"REV_AT_EPOCH":85778,"BSTAR":4.7412e-5,"MEAN_MOTION_DOT":3.99e-6,"MEAN_MOTION_DDOT":0},{"OBJECT_NAME":"ERS-1","OBJECT_ID":"1991-050A","EPOCH":"2026-04-10T07:47:22.664832","MEAN_MOTION":14.39475311,"ECCENTRICITY":0.0033091,"INCLINATION":98.7853,"RA_OF_ASC_NODE":119.3513,"ARG_OF_PERICENTER":107.9838,"MEAN_ANOMALY":252.496,"EPHEMERIS_TYPE":0,"CLASSIFICATION_TYPE":"U","NORAD_CAT_ID":21574,"ELEMENT_SET_NO":999,"REV_AT_EPOCH":82028,"BSTAR":0.00011445,"MEAN_MOTION_DOT":3.13e-6,"MEAN_MOTION_DDOT":0},{"OBJECT_NAME":"ARIANE 40 R/B","OBJECT_ID":"1991-050F","EPOCH":"2026-04-10T08:52:15.606048","MEAN_MOTION":14.42918395,"ECCENTRICITY":0.0002732,"INCLINATION":98.1948,"RA_OF_ASC_NODE":151.4068,"ARG_OF_PERICENTER":3.8458,"MEAN_ANOMALY":356.2753,"EPHEMERIS_TYPE":0,"CLASSIFICATION_TYPE":"U","NORAD_CAT_ID":21610,"ELEMENT_SET_NO":999,"REV_AT_EPOCH":82356,"BSTAR":9.824e-5,"MEAN_MOTION_DOT":2.87e-6,"MEAN_MOTION_DDOT":0},{"OBJECT_NAME":"INTERCOSMOS 25","OBJECT_ID":"1991-086A","EPOCH":"2026-04-10T12:27:44.991936","MEAN_MOTION":12.12108623,"ECCENTRICITY":0.1486108,"INCLINATION":82.5998,"RA_OF_ASC_NODE":290.7611,"ARG_OF_PERICENTER":48.3458,"MEAN_ANOMALY":323.5608,"EPHEMERIS_TYPE":0,"CLASSIFICATION_TYPE":"U","NORAD_CAT_ID":21819,"ELEMENT_SET_NO":999,"REV_AT_EPOCH":50054,"BSTAR":0.0001923,"MEAN_MOTION_DOT":1.01e-5,"MEAN_MOTION_DDOT":0},{"OBJECT_NAME":"SL-8 R/B","OBJECT_ID":"1992-008B","EPOCH":"2026-04-10T08:16:53.920128","MEAN_MOTION":13.75970144,"ECCENTRICITY":0.003553,"INCLINATION":82.9254,"RA_OF_ASC_NODE":244.2257,"ARG_OF_PERICENTER":47.9168,"MEAN_ANOMALY":330.4199,"EPHEMERIS_TYPE":0,"CLASSIFICATION_TYPE":"U","NORAD_CAT_ID":21876,"ELEMENT_SET_NO":999,"REV_AT_EPOCH":71377,"BSTAR":2.9807e-5,"MEAN_MOTION_DOT":4.4e-7,"MEAN_MOTION_DDOT":0},{"OBJECT_NAME":"SL-8 R/B","OBJECT_ID":"1992-020B","EPOCH":"2026-04-10T07:45:50.755104","MEAN_MOTION":13.75550401,"ECCENTRICITY":0.0028405,"INCLINATION":82.9281,"RA_OF_ASC_NODE":130.27,"ARG_OF_PERICENTER":206.9345,"MEAN_ANOMALY":163.388,"EPHEMERIS_TYPE":0,"CLASSIFICATION_TYPE":"U","NORAD_CAT_ID":21938,"ELEMENT_SET_NO":999,"REV_AT_EPOCH":70548,"BSTAR":-2.3467e-5,"MEAN_MOTION_DOT":-8.0e-8,"MEAN_MOTION_DDOT":0},{"OBJECT_NAME":"USA 81","OBJECT_ID":"1992-023A","EPOCH":"2026-04-10T12:19:52.991328","MEAN_MOTION":14.32378862,"ECCENTRICITY":0.0001324,"INCLINATION":85.0035,"RA_OF_ASC_NODE":113.0718,"ARG_OF_PERICENTER":76.6222,"MEAN_ANOMALY":283.5119,"EPHEMERIS_TYPE":0,"CLASSIFICATION_TYPE":"U","NORAD_CAT_ID":21949,"ELEMENT_SET_NO":999,"REV_AT_EPOCH":9934,"BSTAR":5.3636e-5,"MEAN_MOTION_DOT":1.65e-6,"MEAN_MOTION_DDOT":0},{"OBJECT_NAME":"COSMOS 2219","OBJECT_ID":"1992-076A","EPOCH":"2026-04-10T13:34:07.121280","MEAN_MOTION":14.14088128,"ECCENTRICITY":0.001748,"INCLINATION":71.0593,"RA_OF_ASC_NODE":311.4371,"ARG_OF_PERICENTER":157.7444,"MEAN_ANOMALY":202.4441,"EPHEMERIS_TYPE":0,"CLASSIFICATION_TYPE":"U","NORAD_CAT_ID":22219,"ELEMENT_SET_NO":999,"REV_AT_EPOCH":72288,"BSTAR":1.7061e-5,"MEAN_MOTION_DOT":-1.5e-7,"MEAN_MOTION_DDOT":0},{"OBJECT_NAME":"SL-16 R/B","OBJECT_ID":"1992-076B","EPOCH":"2026-04-10T11:25:27.085152","MEAN_MOTION":14.16863772,"ECCENTRICITY":0.0011241,"INCLINATION":70.9976,"RA_OF_ASC_NODE":121.4186,"ARG_OF_PERICENTER":38.6774,"MEAN_ANOMALY":71.4548,"EPHEMERIS_TYPE":0,"CLASSIFICATION_TYPE":"U","NORAD_CAT_ID":22220,"ELEMENT_SET_NO":999,"REV_AT_EPOCH":72633,"BSTAR":0.00013892,"MEAN_MOTION_DOT":2.31e-6,"MEAN_MOTION_DDOT":0},{"OBJECT_NAME":"COSMOS 2221","OBJECT_ID":"1992-080A","EPOCH":"2026-04-10T11:16:24.081024","MEAN_MOTION":14.9634859,"ECCENTRICITY":0.0015715,"INCLINATION":82.5023,"RA_OF_ASC_NODE":248.6295,"ARG_OF_PERICENTER":86.8028,"MEAN_ANOMALY":273.4991,"EPHEMERIS_TYPE":0,"CLASSIFICATION_TYPE":"U","NORAD_CAT_ID":22236,"ELEMENT_SET_NO":999,"REV_AT_EPOCH":78554,"BSTAR":0.00019171,"MEAN_MOTION_DOT":2.2e-5,"MEAN_MOTION_DDOT":0},{"OBJECT_NAME":"SL-16 R/B","OBJECT_ID":"1992-093B","EPOCH":"2026-04-10T06:11:57.196896","MEAN_MOTION":14.15454872,"ECCENTRICITY":0.0006597,"INCLINATION":71.0207,"RA_OF_ASC_NODE":297.9962,"ARG_OF_PERICENTER":262.7705,"MEAN_ANOMALY":97.2669,"EPHEMERIS_TYPE":0,"CLASSIFICATION_TYPE":"U","NORAD_CAT_ID":22285,"ELEMENT_SET_NO":999,"REV_AT_EPOCH":71762,"BSTAR":-8.3991e-5,"MEAN_MOTION_DOT":-2.12e-6,"MEAN_MOTION_DDOT":0},{"OBJECT_NAME":"COSMOS 2228","OBJECT_ID":"1992-094A","EPOCH":"2026-04-10T12:45:27.750816","MEAN_MOTION":14.97368737,"ECCENTRICITY":0.0017792,"INCLINATION":82.5201,"RA_OF_ASC_NODE":206.8251,"ARG_OF_PERICENTER":190.2569,"MEAN_ANOMALY":169.8293,"EPHEMERIS_TYPE":0,"CLASSIFICATION_TYPE":"U","NORAD_CAT_ID":22286,"ELEMENT_SET_NO":999,"REV_AT_EPOCH":78082,"BSTAR":0.00016159,"MEAN_MOTION_DOT":1.908e-5,"MEAN_MOTION_DDOT":0},{"OBJECT_NAME":"SL-16 R/B","OBJECT_ID":"1993-016B","EPOCH":"2026-04-10T12:20:04.816032","MEAN_MOTION":14.1531265,"ECCENTRICITY":0.0012561,"INCLINATION":71.0068,"RA_OF_ASC_NODE":148.3449,"ARG_OF_PERICENTER":273.8953,"MEAN_ANOMALY":86.0733,"EPHEMERIS_TYPE":0,"CLASSIFICATION_TYPE":"U","NORAD_CAT_ID":22566,"ELEMENT_SET_NO":999,"REV_AT_EPOCH":70667,"BSTAR":0.00012745,"MEAN_MOTION_DOT":2.01e-6,"MEAN_MOTION_DDOT":0},{"OBJECT_NAME":"COSMOS 2242","OBJECT_ID":"1993-024A","EPOCH":"2026-04-10T11:03:34.390080","MEAN_MOTION":14.96702695,"ECCENTRICITY":0.0015981,"INCLINATION":82.5183,"RA_OF_ASC_NODE":236.3197,"ARG_OF_PERICENTER":193.7706,"MEAN_ANOMALY":166.3083,"EPHEMERIS_TYPE":0,"CLASSIFICATION_TYPE":"U","NORAD_CAT_ID":22626,"ELEMENT_SET_NO":999,"REV_AT_EPOCH":78514,"BSTAR":0.00021226,"MEAN_MOTION_DOT":2.455e-5,"MEAN_MOTION_DDOT":0}]
