SL-8 R/B                
1 21088U 91006B   26100.42901976  .00000114  00000+0  99459-4 0  9997
2 21088  82.9423 146.4460 0021176 308.5305  62.5565 13.77500097768442
OKEAN-3                 
1 21397U 91039A   26100.52831387  .00002211  00000+0  15361-3 0  9994
2 21397  82.5157 305.9890 0013478 218.2611 141.7660 15.05002946869820
COSMOS 2151             
1 21422U 91042A   26100.49950875  .00001935  00000+0  15235-3 0  9999
2 21422  82.4966  52.9840 0011172 318.7656  41.2723 15.00255643867960
SL-14 R/B               
1 21423U 91042B   26100.49454116  .00000399  00000+0  47412-4 0  9993
2 21423  82.4960 190.3672 0018177 133.4144 226.8587 14.81863198857787
ERS-1                   
1 21574U 91050A   26100.32456788  .00000313  00000+0  11445-3 0  9990
2 21574  98.7853 119.3513 0033091 107.9838 252.4960 14.39475311820282
ARIANE 40 R/B           
1 21610U 91050F   26100.36962507  .00000287  00000+0  98240-4 0  9995
2 21610  98.1948 151.4068 0002732   3.8458 356.2753 14.42918395823569
INTERCOSMOS 25          
1 21819U 91086A   26100.51927074  .00001010  00000+0  19230-3 0  9998
2 21819  82.5998 290.7611 1486108  48.3458 323.5608 12.12108623500547
SL-8 R/B                
1 21876U 92008B   26100.34506852  .00000044  00000+0  29807-4 0  9992
2 21876  82.9254 244.2257 0035530  47.9168 330.4199 13.75970144713778
SL-8 R/B                
1 21938U 92020B   26100.32350411 -.00000008  00000+0 -23467-4 0  9999
2 21938  82.9281 130.2700 0028405 206.9345 163.3880 13.75550401705480
USA 81                  
1 21949U 92023A   26100.51380777  .00000165  00000+0  53636-4 0  9996
2 21949  85.0035 113.0718 0001324  76.6222 283.5119 14.32378862 99342
COSMOS 2219             
1 22219U 92076A   26100.56536020 -.00000015  00000+0  17061-4 0  9991
2 22219  71.0593 311.4371 0017480 157.7444 202.4441 14.14088128722886
SL-16 R/B               
1 22220U 92076B   26100.47600793  .00000231  00000+0  13892-3 0  9998
2 22220  70.9976 121.4186 0011241  38.6774  71.4548 14.16863772726330
COSMOS 2221             
1 22236U 92080A   26100.46972316  .00002200  00000+0  19171-3 0  9996
2 22236  82.5023 248.6295 0015715  86.8028 273.4991 14.96348590785547
SL-16 R/B               
1 22285U 92093B   26100.25830089 -.00000212  00000+0 -83991-4 0  9996
2 22285  71.0207 297.9962 0006597 262.7705  97.2669 14.15454872717621
COSMOS 2228             
1 22286U 92094A   26100.53157119  .00001908  00000+0  16159-3 0  9997
2 22286  82.5201 206.8251 0017792 190.2569 169.8293 14.97368737780820
SL-16 R/B               
1 22566U 93016B   26100.51394463  .00000201  00000+0  12745-3 0  9998
2 22566  71.0068 148.3449 0012561 273.8953  86.0733 14.15312650706671
COSMOS 2242             
1 22626U 93024A   26100.46081470  .00002455  00000+0  21226-3 0  9996
2 22626  82.5183 236.3197 0015981 193.7706 166.3083 14.96702695785146
